#dP2023  8  6  0  0  0.00000000      96 __u+U IGS14 FIT  IAC
## 2274      0.00000000   900.00000000 60162 0.0000000000000
+  119   C06C07C08C09C10C11C12C13C14C16C19C20C21C22C23C24C25
+        C26C27C28C29C30C32C33C34C35C36C37C38C39C40C41C42C43
+        C44C45C46E02E03E04E05E07E08E09E10E11E12E13E14E15E18
+        E19E21E24E25E26E27E30E31E33E34E36G01G02G03G04G05G06
+        G07G08G09G10G11G12G13G14G15G16G17G18G19G20G21G22G23
+        G24G25G26G27G28G29G30G31G32J02J03J04R01R02R03R04R05
+        R07R08R09R11R12R13R14R15R16R17R18R19R20R21R22R24R25
++         7  7  7  7  7  7  7  7  7  7  6  6  6  6  6  6  6
++         6  6  6  6  6  6  6  6  6  6  6  6  6  6  6  6  6
++         6  7  6  4  5  4  4  4  4  4  4  4  4  4  4  4  4
++         4  4  4  4  4  4  4  4  4  5  4  4  3  3  4  4  3
++         3  4  4  3  4  3  4  4  4  4  3  4  3  4  4  4  4
++         4  3  4  4  3  3  4  3  3  9  9 10  7  6  7  7  7
++         7  7  7  7  7  8  7  7  7  7  6  8  8  7  7  7  8
%c M  cc GPS ccc cccc cccc cccc cccc ccccc ccccc ccccc ccccc
%c cc cc ccc ccc cccc cccc cccc cccc ccccc ccccc ccccc ccccc
%f  1.2500000  1.025000000  0.00000000000  0.000000000000000
%f  0.0000000  0.000000000  0.00000000000  0.000000000000000
%i    0    0    0    0      0      0      0      0         0
%i    0    0    0    0      0      0      0      0         0
/* INFORMATION & ANALYSIS CENTER (IAC)            FINAL DATA
/* S/V CLOCKS ARE ALIGNED TO GNSS TIME                      
/* G:C1WC2W R:C1PC2P E:C1XC5X C:C2IC6I J:C1CC2S             
/* PCV:IGS20_2247 OL/AL:FES2004  NONE     YN ORB:CoN CLK:CoN
*  2023 08 06 17 45  0.00000000
PC06 -18477.550245  35402.919770  13115.469603    806.309390
PC07  -2927.703196  36069.461486  21879.816366    110.801003
PC08  -9231.809710  19120.473364 -36465.953234    400.293714
PC09 -11130.427820  34213.883957  21933.608387    324.905455
PC10   2819.327376  38670.722334  17543.094535   -137.317782
PC11 -13331.373055  24533.901494    -81.792106    765.488693
PC12 -18898.857081  12093.643663  16639.317405    848.909794
PC13  -1650.513325  21817.196772 -35900.946168    329.504433
PC14  -3655.776453  19181.027769 -19950.194082    182.685172
PC16 -19826.454531  35235.703441  11620.919586    -24.515151
PC19  -4476.379251 -23830.523097  13809.178792   -954.446549
PC20   9998.770703 -12816.778245  22683.031592    381.212691
PC21 -19632.797216  -6904.930711 -18569.487643   -945.355248
PC22 -17147.711462 -21707.190666  -3564.538399   -363.005295
PC23  16343.803423  12640.440868  18769.258158   -914.761232
PC24 -22643.906012  10406.475131  12577.950767    255.196415
PC25  -3059.101277  16407.037863  22361.844512    183.827674
PC26 -27710.258458   -241.982973  -3453.986960   -159.452472
PC27  18136.097074  -3305.586817 -20972.504691    180.578796
PC28   9586.365146  14547.767614 -21798.920932    134.934240
PC29   5198.037885 -25916.142221   8934.166377    157.354413
PC30  16671.032565 -20386.193085  -9263.079167     -3.130969
PC32  19738.869243   6873.894017  18505.957096   -533.785022
PC33   4559.648941  23801.047199 -13856.839158   -930.685163
PC34 -16171.696479  21283.710929   7976.109883    231.332894
PC35  -9961.513407 -14524.665488  21640.589610    573.229188
PC36   4333.301619 -16281.572359 -22215.455244   -289.994853
PC37  27511.552776   1523.688778   4366.789610   -803.206740
PC38 -18042.238612  19141.082354 -32971.758538     96.461097
PC39 -22407.081278  35260.837216   4626.353574     -4.181943
PC40  -6846.684081  32617.639588  25998.719692    -31.979652
PC41  16960.753213  21982.737998   2909.372094   -891.814580
PC42 -11012.588025  11589.835874 -22837.118769   -586.515542
PC43  -5835.045513  26039.944481  -8148.531053     34.093941
PC44 -18053.126892   3711.722294  20931.769547    191.912224
PC45 -16850.574171 -12315.534323 -18527.124709    -10.857732
PC46  21647.987033 -11000.119499 -13714.071458    -74.548637
PE02 -25990.159552  -3822.913493  13654.469997     54.110160
PE03 -16826.244591   3509.081011 -24102.424651    -43.366681
PE04  10321.613402 -23103.423471  15361.365831   -183.453782
PE05 -13565.372910 -18351.248650 -18847.004948      6.560431
PE07   2154.799011  29441.914831   2263.676736    -65.442697
PE08 -10410.673565  22823.565144 -15723.192035   -126.184180
PE09  -2071.278235 -29443.214203  -2112.953552   -111.075593
PE10  13288.058794 -20577.548226  16596.784458   -554.119051
PE11   2608.228777 -18757.351206  22734.361814   2664.957317
PE12  21002.446910 -19071.668977   8454.185170   -647.676864
PE13  -3375.003231  18947.659095 -22493.044539    -19.400233
PE14   3607.829046 -24180.626472  -2480.548372    303.719802
PE15 -21224.301483  18969.948244  -8119.566234    -43.016377
PE18   4317.392043  30736.771308  -8016.242134    382.923262
PE19  16849.349770   -413.934095  24339.391255  -1909.260177
PE21  24303.851510  16482.963329   3737.374508   -545.109288
PE24  -7684.880009 -20288.294408 -20151.915860   -251.129539
PE25 -24138.573597 -16642.051442  -4056.573885   -609.437965
PE26  16873.539470   7442.498701 -23153.557522    185.035172
PE27   8411.646014  20304.426200  19834.416306   -117.945496
PE30 -12758.936238  11816.652353  23950.902908   -396.577735
PE31  12244.299895 -12121.501451 -24056.220341     -2.067499
PE33  26301.220310  -7395.658084 -11378.210747     -1.822770
PE34 -26398.892095   7960.284114  10775.273009    -60.116215
PE36 -16197.940072  -7837.482266  23498.047937    -97.109512
PG01  -6908.521346  17749.076164 -18703.189530    169.637643
PG02 -12822.847397  19191.222632 -12491.440226   -568.320118
PG03   4323.857683  17708.823341 -19501.880206   -199.517635
PG04   -336.849816  26472.047144   1059.099567    117.701981
PG05  12096.269651 -10158.596733  21186.236063   -137.781522
PG06  23097.521010  -3283.646212 -12723.930923    569.710522
PG07  10351.869382  12040.602904  21798.600517    103.385310
PG08  -6621.552632  23382.797105  10158.659328   -135.882696
PG09   7265.889255  23555.157339   9750.302144    -93.405752
PG10 -24064.963322 -10796.652540  -4174.449608    -48.194878
PG11  23363.589735 -12542.793156    941.009466   -308.931024
PG12    797.352344 -16896.614635 -20769.323112   -409.742249
PG13  13004.295183 -17201.137691  15176.007559    556.788985
PG14  23068.560328  13271.630981  -1389.673622    145.852038
PG15   3277.547056 -24502.548176   8897.977606     65.122269
PG16 -16774.770020   4948.415653  19812.820833   -471.637955
PG17  13200.672663   9910.984601 -20349.799189    722.317222
PG18 -12232.986505  -9903.046149  21420.394332   -373.067979
PG19  14961.375007   1666.075299 -22090.678512    354.072820
PG20  20658.559422  -4474.931429  16000.646292    418.647760
PG21 -14556.834068  18806.222056 -10304.413584    151.141878
PG22 -15063.268576   2734.845638 -21235.292737    523.351364
PG23 -19341.105503 -16597.429623   7780.042018     51.883226
PG24   9682.685226 -19953.092641 -14667.352372   -281.598454
PG25 -13193.840635 -18821.427754 -13848.316780    460.626475
PG26 -23674.319605  -1658.825276  12151.491282    233.937866
PG27 -12700.950151  13812.745329  18376.801291    -17.235010
PG28 -22342.719290   2108.149337 -14226.198560     78.334759
PG29  -4429.279944 -24343.987505   9465.700155   -607.237488
PG30  18803.335979   4954.208894  18327.408568   -498.562834
PG31 -24622.470055   9542.578058  -4679.014228   -221.386610
PG32 -14799.899102  -5772.458725 -21134.405406   -535.684687
PJ02 -27893.811579  20669.289285  29023.202126     -2.219947
PJ03 -34276.100884  24705.245982   5432.647676     -0.735603
PJ04 -18389.874030  26857.344417 -21691.232945     98.446333
PR01 -14237.259010  -9637.065215 -18840.911940     62.947366
PR02  -7882.199682   8646.972639 -22617.108119    -22.550436
PR03   2584.696340  21789.282715 -12914.925199     82.789693
PR04  11176.980210  22631.094522   3664.465069    197.640626
PR05  13776.312598  11255.085617  18278.705334    116.910940
PR07  -3044.864065 -22188.912629  12293.081863     61.836012
PR08 -11364.660909 -22542.657333  -3714.104945    -72.002415
PR09  20317.665554  -5287.099559 -14524.808323    135.267204
PR11 -13581.654222 -10501.830682 -18842.752245   -124.805916
PR12 -25078.300638  -4077.608597  -2300.199165     29.899580
PR13 -21578.367977   3979.824706  12999.170940    -37.872570
PR14  -3893.469211  10728.961842  22828.930095     25.061339
PR15  14708.319988  10501.691261  18031.141710     87.231280
PR16  25059.982167   4063.730082   2693.439156     17.439946
PR17 -10514.093267  21085.939842  -9829.183822      6.496820
PR18   1513.864770  13712.206241 -21434.408892     95.431552
PR19  12033.053600   1137.114449 -22464.813196   -242.529384
PR20  18120.298860 -15791.709248  -8585.168044    -97.855690
PR21   9923.857025 -20787.131298  10916.422243    -28.364202
PR22  -2127.867845 -13360.909230  21649.438432    108.567262
PR24 -17613.738309  16674.188179   7950.175624    -19.453904
PR25  11344.874680 -20656.132943   9732.050837     43.915808
EOF
